SENTINEL-6              
1 46984U 20086A   23287.51169952 -.00000039  00000+0  94232-4 0  9993
2 46984  66.0445   3.6179 0007897 268.0767  91.9343 12.80930183135363
